{
  "type": "FeatureCollection",
  "features": [
    {
      "type": "Feature",
      "properties": {
        "norad_id": 34886,
        "name": "COSMOS 2251 DEB",
        "group": "cosmos-2251-debris",
        "lat": -0.36755483514667453,
        "lon": -165.54850063991051,
        "alt_km": 436.8053844196156,
        "timestamp": "2025-12-06T11:28:11.457663+00:00",
        "meta_object_name": "COSMOS 2251 DEB",
        "meta_object_id": "1993-036ACZ",
        "meta_epoch": "2025-12-02T21:33:25.254144",
        "meta_mean_motion": 15.36781254,
        "meta_eccentricity": 0.00310818,
        "meta_inclination": 73.9522,
        "meta_ra_of_asc_node": 202.2947,
        "meta_arg_of_pericenter": 28.5971,
        "meta_mean_anomaly": 331.6931,
        "meta_ephemeris_type": 0,
        "meta_classification_type": "U",
        "meta_norad_cat_id": 34886,
        "meta_element_set_no": 999,
        "meta_rev_at_epoch": 62847,
        "meta_bstar": 0.0022652604,
        "meta_mean_motion_dot": 0.00083623,
        "meta_mean_motion_ddot": 0,
        "tle_line1": "1 34886U 93036ACZ 25336.89820896  .00083623  00000+0  22653-2 0  9990",
        "tle_line2": "2 34886  73.9522 202.2947 0031081  28.5971 331.6931 15.36781254628475"
      },
      "geometry": {
        "type": "Point",
        "coordinates": [
          -165.54850063991051,
          -0.36755483514667453
        ]
      }
    },
    {
      "type": "Feature",
      "properties": {
        "norad_id": 34907,
        "name": "COSMOS 2251 DEB",
        "group": "cosmos-2251-debris",
        "lat": -35.60968523292733,
        "lon": -106.09327762961959,
        "alt_km": 463.914123040694,
        "timestamp": "2025-12-06T11:28:11.457673+00:00",
        "meta_object_name": "COSMOS 2251 DEB",
        "meta_object_id": "1993-036ADC",
        "meta_epoch": "2025-12-05T15:47:59.728416",
        "meta_mean_motion": 15.38137337,
        "meta_eccentricity": 0.00187359,
        "meta_inclination": 73.9728,
        "meta_ra_of_asc_node": 63.7989,
        "meta_arg_of_pericenter": 350.4143,
        "meta_mean_anomaly": 9.6703,
        "meta_ephemeris_type": 0,
        "meta_classification_type": "U",
        "meta_norad_cat_id": 34907,
        "meta_element_set_no": 999,
        "meta_rev_at_epoch": 87864,
        "meta_bstar": 0.010839259,
        "meta_mean_motion_dot": 0.00433014,
        "meta_mean_motion_ddot": 0,
        "tle_line1": "1 34907U 93036ADC 25339.65833019  .00433014  00000+0  10839-1 0  9997",
        "tle_line2": "2 34907  73.9728  63.7989 0018735 350.4143   9.6703 15.38137337878646"
      },
      "geometry": {
        "type": "Point",
        "coordinates": [
          -106.09327762961959,
          -35.60968523292733
        ]
      }
    },
    {
      "type": "Feature",
      "properties": {
        "norad_id": 34908,
        "name": "COSMOS 2251 DEB",
        "group": "cosmos-2251-debris",
        "lat": 73.58934854848769,
        "lon": 111.19368890979955,
        "alt_km": 735.7970167613203,
        "timestamp": "2025-12-06T11:28:11.457683+00:00",
        "meta_object_name": "COSMOS 2251 DEB",
        "meta_object_id": "1993-036ADD",
        "meta_epoch": "2025-12-05T22:31:44.429088",
        "meta_mean_motion": 14.37367186,
        "meta_eccentricity": 0.00398635,
        "meta_inclination": 74.0595,
        "meta_ra_of_asc_node": 36.154,
        "meta_arg_of_pericenter": 54.5364,
        "meta_mean_anomaly": 122.3252,
        "meta_ephemeris_type": 0,
        "meta_classification_type": "U",
        "meta_norad_cat_id": 34908,
        "meta_element_set_no": 999,
        "meta_rev_at_epoch": 87181,
        "meta_bstar": 0.0009291046,
        "meta_mean_motion_dot": 2.775e-05,
        "meta_mean_motion_ddot": 0,
        "tle_line1": "1 34908U 93036ADD 25339.93870867  .00002775  00000+0  92910-3 0  9999",
        "tle_line2": "2 34908  74.0595  36.1540 0039863  54.5364 122.3252 14.37367186871819"
      },
      "geometry": {
        "type": "Point",
        "coordinates": [
          111.19368890979955,
          73.58934854848769
        ]
      }
    },
    {
      "type": "Feature",
      "properties": {
        "norad_id": 34909,
        "name": "COSMOS 2251 DEB",
        "group": "cosmos-2251-debris",
        "lat": 28.301311670574602,
        "lon": 97.76382077458393,
        "alt_km": 692.2388885771434,
        "timestamp": "2025-12-06T11:28:11.457694+00:00",
        "meta_object_name": "COSMOS 2251 DEB",
        "meta_object_id": "1993-036ADE",
        "meta_epoch": "2025-12-02T16:20:39.593184",
        "meta_mean_motion": 14.77677518,
        "meta_eccentricity": 0.00852182,
        "meta_inclination": 74.0135,
        "meta_ra_of_asc_node": 96.3432,
        "meta_arg_of_pericenter": 234.3085,
        "meta_mean_anomaly": 125.0138,
        "meta_ephemeris_type": 0,
        "meta_classification_type": "U",
        "meta_norad_cat_id": 34909,
        "meta_element_set_no": 999,
        "meta_rev_at_epoch": 66703,
        "meta_bstar": 0.00090528683,
        "meta_mean_motion_dot": 6.857e-05,
        "meta_mean_motion_ddot": 0,
        "tle_line1": "1 34909U 93036ADE 25336.68101381  .00006857  00000+0  90529-3 0  9996",
        "tle_line2": "2 34909  74.0135  96.3432 0085218 234.3085 125.0138 14.77677518667038"
      },
      "geometry": {
        "type": "Point",
        "coordinates": [
          97.76382077458393,
          28.301311670574602
        ]
      }
    },
    {
      "type": "Feature",
      "properties": {
        "norad_id": 34910,
        "name": "COSMOS 2251 DEB",
        "group": "cosmos-2251-debris",
        "lat": -73.1982096031136,
        "lon": 4.632323541628088,
        "alt_km": 829.3290586301973,
        "timestamp": "2025-12-06T11:28:11.457704+00:00",
        "meta_object_name": "COSMOS 2251 DEB",
        "meta_object_id": "1993-036ADF",
        "meta_epoch": "2025-12-04T03:27:09.174816",
        "meta_mean_motion": 13.3765034,
        "meta_eccentricity": 0.04679235,
        "meta_inclination": 73.8763,
        "meta_ra_of_asc_node": 114.9889,
        "meta_arg_of_pericenter": 235.2756,
        "meta_mean_anomaly": 311.3517,
        "meta_ephemeris_type": 0,
        "meta_classification_type": "U",
        "meta_norad_cat_id": 34910,
        "meta_element_set_no": 999,
        "meta_rev_at_epoch": 81409,
        "meta_bstar": 0.0018660381,
        "meta_mean_motion_dot": 1.821e-05,
        "meta_mean_motion_ddot": 0,
        "tle_line1": "1 34910U 93036ADF 25338.14385619  .00001821  00000+0  18660-2 0  9990",
        "tle_line2": "2 34910  73.8763 114.9889 0467923 235.2756 311.3517 13.37650340814099"
      },
      "geometry": {
        "type": "Point",
        "coordinates": [
          4.632323541628088,
          -73.1982096031136
        ]
      }
    },
    {
      "type": "Feature",
      "properties": {
        "norad_id": 34911,
        "name": "COSMOS 2251 DEB",
        "group": "cosmos-2251-debris",
        "lat": -0.7468212272465083,
        "lon": 76.89161947657693,
        "alt_km": 752.1194730220841,
        "timestamp": "2025-12-06T11:28:11.457714+00:00",
        "meta_object_name": "COSMOS 2251 DEB",
        "meta_object_id": "1993-036ADG",
        "meta_epoch": "2025-12-05T20:06:00.004320",
        "meta_mean_motion": 14.5935345,
        "meta_eccentricity": 0.00832652,
        "meta_inclination": 74.0413,
        "meta_ra_of_asc_node": 257.8979,
        "meta_arg_of_pericenter": 25.0939,
        "meta_mean_anomaly": 32.0655,
        "meta_ephemeris_type": 0,
        "meta_classification_type": "U",
        "meta_norad_cat_id": 34911,
        "meta_element_set_no": 999,
        "meta_rev_at_epoch": 88486,
        "meta_bstar": 0.00032875504,
        "meta_mean_motion_dot": 1.601e-05,
        "meta_mean_motion_ddot": 0,
        "tle_line1": "1 34911U 93036ADG 25339.83750005  .00001601  00000+0  32876-3 0  9995",
        "tle_line2": "2 34911  74.0413 257.8979 0083265  25.0939  32.0655 14.59353450884862"
      },
      "geometry": {
        "type": "Point",
        "coordinates": [
          76.89161947657693,
          -0.7468212272465083
        ]
      }
    },
    {
      "type": "Feature",
      "properties": {
        "norad_id": 34913,
        "name": "COSMOS 2251 DEB",
        "group": "cosmos-2251-debris",
        "lat": 19.16797076348869,
        "lon": -60.31160941883558,
        "alt_km": 763.2016340206828,
        "timestamp": "2025-12-06T11:28:11.457752+00:00",
        "meta_object_name": "COSMOS 2251 DEB",
        "meta_object_id": "1993-036ADJ",
        "meta_epoch": "2025-12-04T06:07:38.155008",
        "meta_mean_motion": 14.34633258,
        "meta_eccentricity": 0.0020057,
        "meta_inclination": 74.0277,
        "meta_ra_of_asc_node": 298.0463,
        "meta_arg_of_pericenter": 50.7163,
        "meta_mean_anomaly": 15.0056,
        "meta_ephemeris_type": 0,
        "meta_classification_type": "U",
        "meta_norad_cat_id": 34913,
        "meta_element_set_no": 999,
        "meta_rev_at_epoch": 65066,
        "meta_bstar": 0.00010199,
        "meta_mean_motion_dot": 2.63e-06,
        "meta_mean_motion_ddot": 0,
        "tle_line1": "1 34913U 93036ADJ 25338.25530272  .00000263  00000+0  10199-3 0  9991",
        "tle_line2": "2 34913  74.0277 298.0463 0020057  50.7163  15.0056 14.34633258650666"
      },
      "geometry": {
        "type": "Point",
        "coordinates": [
          -60.31160941883558,
          19.16797076348869
        ]
      }
    }
  ]
}